[{"OBJECT_NAME":"STARLINK-4513","OBJECT_ID":"2022-101X","EPOCH":"2026-03-09T06:43:11.031456","MEAN_MOTION":15.08836724,"ECCENTRICITY":0.00012967,"INCLINATION":53.2166,"RA_OF_ASC_NODE":65.9596,"ARG_OF_PERICENTER":87.0326,"MEAN_ANOMALY":273.0814,"EPHEMERIS_TYPE":0,"CLASSIFICATION_TYPE":"U","NORAD_CAT_ID":53548,"ELEMENT_SET_NO":999,"REV_AT_EPOCH":19624,"BSTAR":-1.8608743e-5,"MEAN_MOTION_DOT":-5.84e-6,"MEAN_MOTION_DDOT":0},{"OBJECT_NAME":"CZ-4B DEB","OBJECT_ID":"2004-035K","EPOCH":"2026-03-08T06:51:30.377664","MEAN_MOTION":15.09293825,"ECCENTRICITY":0.00031468,"INCLINATION":97.5843,"RA_OF_ASC_NODE":91.2716,"ARG_OF_PERICENTER":107.6302,"MEAN_ANOMALY":252.527,"EPHEMERIS_TYPE":0,"CLASSIFICATION_TYPE":"U","NORAD_CAT_ID":29043,"ELEMENT_SET_NO":999,"REV_AT_EPOCH":10418,"BSTAR":0.00031897975,"MEAN_MOTION_DOT":5.021e-5,"MEAN_MOTION_DDOT":0}]
